{"type": "FeatureCollection", "features": [ {"type": "Feature", "properties": {"norad_id": 66856, "name": "STARLINK-36072", "group": "last-30-days", "lat": 9.088678081930414, "lon": 103.69097298894087, "alt_km": 333.15035960928617, "timestamp": "2025-12-17T09:00:15.891841+00:00", "meta": {"OBJECT_NAME": "STARLINK-36072", "OBJECT_ID": "2025-281J", "EPOCH": "2025-12-16T22:00:03.000096", "MEAN_MOTION": 15.79892435, "ECCENTRICITY": 0.00016641, "INCLINATION": 43.0007, "RA_OF_ASC_NODE": 96.6054, "ARG_OF_PERICENTER": 274.7834, "MEAN_ANOMALY": 8.9416, "EPHEMERIS_TYPE": 0, "CLASSIFICATION_TYPE": "U", "NORAD_CAT_ID": 66856, "ELEMENT_SET_NO": 999, "REV_AT_EPOCH": 207, "BSTAR": -0.0080658799, "MEAN_MOTION_DOT": -0.01372591, "MEAN_MOTION_DDOT": 0}, "tle": {"line1": "1 66856U 25281J   25350.91670139 -.01372591  00000+0 -80659-2 0  9999", "line2": "2 66856  43.0007  96.6054 0001664 274.7834   8.9416 15.79892435  2079"}}, "geometry": {"type": "Point", "coordinates": [103.69097298894087, 9.088678081930414]}}, {"type": "Feature", "properties": {"norad_id": 66857, "name": "STARLINK-36083", "group": "last-30-days", "lat": 10.577985779895121, "lon": 105.36109351381381, "alt_km": 333.0944654259265, "timestamp": "2025-12-17T09:00:15.891851+00:00", "meta": {"OBJECT_NAME": "STARLINK-36083", "OBJECT_ID": "2025-281K", "EPOCH": "2025-12-16T22:00:03.000096", "MEAN_MOTION": 15.79840553, "ECCENTRICITY": 0.00015201, "INCLINATION": 43.0006, "RA_OF_ASC_NODE": 96.5996, "ARG_OF_PERICENTER": 276.4324, "MEAN_ANOMALY": 9.6093, "EPHEMERIS_TYPE": 0, "CLASSIFICATION_TYPE": "U", "NORAD_CAT_ID": 66857, "ELEMENT_SET_NO": 999, "REV_AT_EPOCH": 207, "BSTAR": -0.0081336947, "MEAN_MOTION_DOT": -0.01379829, "MEAN_MOTION_DDOT": 0}, "tle": {"line1": "1 66857U 25281K   25350.91670139 -.01379829  00000+0 -81337-2 0  9995", "line2": "2 66857  43.0006  96.5996 0001520 276.4324   9.6093 15.79840553  2070"}}, "geometry": {"type": "Point", "coordinates": [105.36109351381381, 10.577985779895121]}}, {"type": "Feature", "properties": {"norad_id": 66858, "name": "STARLINK-35118", "group": "last-30-days", "lat": 12.089256208590866, "lon": 107.08250542060084, "alt_km": 333.09010699873124, "timestamp": "2025-12-17T09:00:15.891864+00:00", "meta": {"OBJECT_NAME": "STARLINK-35118", "OBJECT_ID": "2025-281L", "EPOCH": "2025-12-16T22:00:03.000096", "MEAN_MOTION": 15.79780764, "ECCENTRICITY": 0.00016262, "INCLINATION": 43.0009, "RA_OF_ASC_NODE": 96.5933, "ARG_OF_PERICENTER": 277.5742, "MEAN_ANOMALY": 10.8406, "EPHEMERIS_TYPE": 0, "CLASSIFICATION_TYPE": "U", "NORAD_CAT_ID": 66858, "ELEMENT_SET_NO": 999, "REV_AT_EPOCH": 185, "BSTAR": -0.0082036656, "MEAN_MOTION_DOT": -0.01387043, "MEAN_MOTION_DDOT": 0}, "tle": {"line1": "1 66858U 25281L   25350.91670139 -.01387043  00000+0 -82037-2 0  9991", "line2": "2 66858  43.0009  96.5933 0001626 277.5742  10.8406 15.79780764  1852"}}, "geometry": {"type": "Point", "coordinates": [107.08250542060084, 12.089256208590866]}}, {"type": "Feature", "properties": {"norad_id": 66859, "name": "STARLINK-35646", "group": "last-30-days", "lat": 13.654543495505312, "lon": 108.90038457834035, "alt_km": 333.0965954338708, "timestamp": "2025-12-17T09:00:15.891876+00:00", "meta": {"OBJECT_NAME": "STARLINK-35646", "OBJECT_ID": "2025-281M", "EPOCH": "2025-12-16T22:00:03.000096", "MEAN_MOTION": 15.79696886, "ECCENTRICITY": 0.00015415, "INCLINATION": 43.0008, "RA_OF_ASC_NODE": 96.5874, "ARG_OF_PERICENTER": 279.7475, "MEAN_ANOMALY": 11.1798, "EPHEMERIS_TYPE": 0, "CLASSIFICATION_TYPE": "U", "NORAD_CAT_ID": 66859, "ELEMENT_SET_NO": 999, "REV_AT_EPOCH": 207, "BSTAR": -0.0082758497, "MEAN_MOTION_DOT": -0.01393033, "MEAN_MOTION_DDOT": 0}, "tle": {"line1": "1 66859U 25281M   25350.91670139 -.01393033  00000+0 -82758-2 0  9998", "line2": "2 66859  43.0008  96.5874 0001541 279.7475  11.1798 15.79696886  2073"}}, "geometry": {"type": "Point", "coordinates": [108.90038457834035, 13.654543495505312]}}, {"type": "Feature", "properties": {"norad_id": 66860, "name": "STARLINK-35987", "group": "last-30-days", "lat": 21.25321666347499, "lon": 118.42821899933823, "alt_km": 333.81385983707787, "timestamp": "2025-12-17T09:00:15.891886+00:00", "meta": {"OBJECT_NAME": "STARLINK-35987", "OBJECT_ID": "2025-281N", "EPOCH": "2025-12-16T22:00:03.000096", "MEAN_MOTION": 15.79264881, "ECCENTRICITY": 0.00017867, "INCLINATION": 43.0006, "RA_OF_ASC_NODE": 96.555, "ARG_OF_PERICENTER": 273.7827, "MEAN_ANOMALY": 29.7768, "EPHEMERIS_TYPE": 0, "CLASSIFICATION_TYPE": "U", "NORAD_CAT_ID": 66860, "ELEMENT_SET_NO": 999, "REV_AT_EPOCH": 207, "BSTAR": -0.0089229697, "MEAN_MOTION_DOT": -0.01463286, "MEAN_MOTION_DDOT": 0}, "tle": {"line1": "1 66860U 25281N   25350.91670139 -.01463286  00000+0 -89230-2 0  9990", "line2": "2 66860  43.0006  96.5550 0001786 273.7827  29.7768 15.79264881  2078"}}, "geometry": {"type": "Point", "coordinates": [118.42821899933823, 21.25321666347499]}}, {"type": "Feature", "properties": {"norad_id": 66861, "name": "STARLINK-35991", "group": "last-30-days", "lat": 16.75455954440369, "lon": 112.62527671201431, "alt_km": 333.4422677617695, "timestamp": "2025-12-17T09:00:15.891896+00:00", "meta": {"OBJECT_NAME": "STARLINK-35991", "OBJECT_ID": "2025-281P", "EPOCH": "2025-12-16T22:00:03.000096", "MEAN_MOTION": 15.79531476, "ECCENTRICITY": 0.00015607, "INCLINATION": 43.0008, "RA_OF_ASC_NODE": 96.5745, "ARG_OF_PERICENTER": 273.399, "MEAN_ANOMALY": 22.5835, "EPHEMERIS_TYPE": 0, "CLASSIFICATION_TYPE": "U", "NORAD_CAT_ID": 66861, "ELEMENT_SET_NO": 999, "REV_AT_EPOCH": 207, "BSTAR": -0.0085507838, "MEAN_MOTION_DOT": -0.01424388, "MEAN_MOTION_DDOT": 0}, "tle": {"line1": "1 66861U 25281P   25350.91670139 -.01424388  00000+0 -85508-2 0  9995", "line2": "2 66861  43.0008  96.5745 0001560 273.3990  22.5835 15.79531476  2077"}}, "geometry": {"type": "Point", "coordinates": [112.62527671201431, 16.75455954440369]}}, {"type": "Feature", "properties": {"norad_id": 66862, "name": "STARLINK-35974", "group": "last-30-days", "lat": 15.253745012708492, "lon": 110.79883504063335, "alt_km": 333.37296404331664, "timestamp": "2025-12-17T09:00:15.891906+00:00", "meta": {"OBJECT_NAME": "STARLINK-35974", "OBJECT_ID": "2025-281Q", "EPOCH": "2025-12-16T22:00:03.000096", "MEAN_MOTION": 15.796027, "ECCENTRICITY": 0.00017895, "INCLINATION": 43.0007, "RA_OF_ASC_NODE": 96.5806, "ARG_OF_PERICENTER": 275.301, "MEAN_ANOMALY": 18.2339, "EPHEMERIS_TYPE": 0, "CLASSIFICATION_TYPE": "U", "NORAD_CAT_ID": 66862, "ELEMENT_SET_NO": 999, "REV_AT_EPOCH": 197, "BSTAR": -0.0084174873, "MEAN_MOTION_DOT": -0.01408912, "MEAN_MOTION_DDOT": 0}, "tle": {"line1": "1 66862U 25281Q   25350.91670139 -.01408912  00000+0 -84175-2 0  9990", "line2": "2 66862  43.0007  96.5806 0001789 275.3010  18.2339 15.79602700  1971"}}, "geometry": {"type": "Point", "coordinates": [110.79883504063335, 15.253745012708492]}}, {"type": "Feature", "properties": {"norad_id": 66863, "name": "STARLINK-36134", "group": "last-30-days", "lat": 18.40852611343558, "lon": 114.69607891764736, "alt_km": 333.53333268993356, "timestamp": "2025-12-17T09:00:15.891916+00:00", "meta": {"OBJECT_NAME": "STARLINK-36134", "OBJECT_ID": "2025-281R", "EPOCH": "2025-12-16T22:00:03.000096", "MEAN_MOTION": 15.7939473, "ECCENTRICITY": 0.00014572, "INCLINATION": 43.0009, "RA_OF_ASC_NODE": 96.5675, "ARG_OF_PERICENTER": 277.7237, "MEAN_ANOMALY": 21.0754, "EPHEMERIS_TYPE": 0, "CLASSIFICATION_TYPE": "U", "NORAD_CAT_ID": 66863, "ELEMENT_SET_NO": 999, "REV_AT_EPOCH": 207, "BSTAR": -0.0086873047, "MEAN_MOTION_DOT": -0.01436409, "MEAN_MOTION_DDOT": 0}, "tle": {"line1": "1 66863U 25281R   25350.91670139 -.01436409  00000+0 -86873-2 0  9990", "line2": "2 66863  43.0009  96.5675 0001457 277.7237  21.0754 15.79394730  2073"}}, "geometry": {"type": "Point", "coordinates": [114.69607891764736, 18.40852611343558]}}, {"type": "Feature", "properties": {"norad_id": 66864, "name": "STARLINK-36070", "group": "last-30-days", "lat": 19.82460594849891, "lon": 116.52444476422986, "alt_km": 333.5944324589109, "timestamp": "2025-12-17T09:00:15.891926+00:00", "meta": {"OBJECT_NAME": "STARLINK-36070", "OBJECT_ID": "2025-281S", "EPOCH": "2025-12-16T22:00:03.000096", "MEAN_MOTION": 15.79330772, "ECCENTRICITY": 0.0001553, "INCLINATION": 43.0007, "RA_OF_ASC_NODE": 96.5614, "ARG_OF_PERICENTER": 276.2541, "MEAN_ANOMALY": 24.8864, "EPHEMERIS_TYPE": 0, "CLASSIFICATION_TYPE": "U", "NORAD_CAT_ID": 66864, "ELEMENT_SET_NO": 999, "REV_AT_EPOCH": 210, "BSTAR": -0.0087126864, "MEAN_MOTION_DOT": -0.01436436, "MEAN_MOTION_DDOT": 0}, "tle": {"line1": "1 66864U 25281S   25350.91670139 -.01436436  00000+0 -87127-2 0  9994", "line2": "2 66864  43.0007  96.5614 0001553 276.2541  24.8864 15.79330772  2107"}}, "geometry": {"type": "Point", "coordinates": [116.52444476422986, 19.82460594849891]}}, {"type": "Feature", "properties": {"norad_id": 66865, "name": "STARLINK-36117", "group": "last-30-days", "lat": 22.674011298908106, "lon": 120.38939753627305, "alt_km": 333.85529615949326, "timestamp": "2025-12-17T09:00:15.891936+00:00", "meta": {"OBJECT_NAME": "STARLINK-36117", "OBJECT_ID": "2025-281T", "EPOCH": "2025-12-16T22:00:03.000096", "MEAN_MOTION": 15.79194146, "ECCENTRICITY": 0.00016516, "INCLINATION": 43.001, "RA_OF_ASC_NODE": 96.5494, "ARG_OF_PERICENTER": 276.9889, "MEAN_ANOMALY": 29.0409, "EPHEMERIS_TYPE": 0, "CLASSIFICATION_TYPE": "U", "NORAD_CAT_ID": 66865, "ELEMENT_SET_NO": 999, "REV_AT_EPOCH": 207, "BSTAR": -0.0092681289, "MEAN_MOTION_DOT": -0.01508611, "MEAN_MOTION_DDOT": 0}, "tle": {"line1": "1 66865U 25281T   25350.91670139 -.01508611  00000+0 -92681-2 0  9991", "line2": "2 66865  43.0010  96.5494 0001651 276.9889  29.0409 15.79194146  2070"}}, "geometry": {"type": "Point", "coordinates": [120.38939753627305, 22.674011298908106]}}]}